#aV2024  2 16  0  0  0.00000000     288 DD+AD WGS84 FIT  NGA
## 2301 432000.00000000   300.00000000 60356 0.0000000000000
+   32     1  2  3  4  5  6  7  8  9 10 11 12 13 14 15 16 17
+         18 19 20 21 22 23 24 25 26 27 28 29 30 31 32  0  0
+          0  0  0  0  0  0  0  0  0  0  0  0  0  0  0  0  0
+          0  0  0  0  0  0  0  0  0  0  0  0  0  0  0  0  0
+          0  0  0  0  0  0  0  0  0  0  0  0  0  0  0  0  0
++         2  2  2  2  2  2  2  2  2  2  2  2  2  2  2  2  2
++         2  2  2  2  2  2  2  2  2  2  2  2  2  2  2  0  0
++         0  0  0  0  0  0  0  0  0  0  0  0  0  0  0  0  0
++         0  0  0  0  0  0  0  0  0  0  0  0  0  0  0  0  0
++         0  0  0  0  0  0  0  0  0  0  0  0  0  0  0  0  0
%c cc cc ccc ccc cccc cccc cccc cccc ccccc ccccc ccccc ccccc
%c cc cc ccc ccc cccc cccc cccc cccc ccccc ccccc ccccc ccccc
%f  0.0000000  0.000000000  0.00000000000  0.000000000000000
%f  0.0000000  0.000000000  0.00000000000  0.000000000000000
%i    0    0    0    0      0      0      0      0         0
%i    0    0    0    0      0      0      0      0         0
/*      NGA, ST. LOUIS,MO.                                  
/*   EPHEMERIS COMPUTED FROM 2 DAYS OF DATA                 
/*   EPOCHA v9 SMOOTHER                                     
/*   G2296 IERS2010 SATIGS SATAPC                           
*  2024  2 16 17 45  0.00000000
P  1   9923.046466 -21817.717470 -11417.143635    169.809880                    
V  1  10806.238585  -9146.690129  28015.860782      0.015620                    
P  2  14689.995881 -21837.790031  -1821.905813   -484.454228                    
V  2   4028.277444   -651.410239  31965.982831      0.059156                    
P  3   8607.297353 -12970.368062 -21646.819370    197.242336                    
V  3  26449.358915   5933.762101   7122.475958      0.242098                    
P  4   3703.188876 -22065.674577 -14190.447983    293.268056                    
V  4   7214.519028  16730.443623 -24237.047277      0.093737                    
P  5 -20551.997147   7290.957450  15051.636078   -162.059754                    
V  5 -18863.111399  -4748.940583 -23101.453550     -0.014112                    
P  6 -16190.177898  -2523.559330 -20857.847032    404.567356                    
V  6  17369.829872 -20077.816251 -10911.345858     -0.149639                    
P  7  -1755.083070 -18652.215762  19134.419467    -63.466213                    
V  7  16789.477139 -16488.221397 -15390.609961     -0.090070                    
P  8   9093.288094 -15231.009671  19535.846103   -167.331992                    
V  8  10189.852127  23065.613485  13594.608152     -0.018771                    
P  9  -7105.368231 -25413.736934  -2816.053234     94.303441                    
V  9   3939.774651   2278.453026 -31463.607129      0.127188                    
P 10  22541.231938  10987.548392   9439.132672      0.742651                    
V 10 -11659.811931   -691.600419  28977.367774      0.013584                    
P 11 -21154.661357   8055.236545 -13830.558798   -577.949970                    
V 11  10777.504282 -14085.900246 -24687.909330     -0.127727                    
P 12 -10068.272673  12640.080142 -21355.222319   -478.609613                    
V 12 -25332.429183  -7653.569245   7580.659642     -0.037112                    
P 13 -13987.819645   5664.137407  21636.613393    626.111752                    
V 13  -5490.023659 -27405.002240   3807.313944      0.034943                    
P 14 -19612.924390 -13434.243931  12061.390449    327.415691                    
V 14  15431.148797    903.138454  25959.197558      0.099684                    
P 15  -7368.392942  16396.978238  18997.619739    128.365346                    
V 15 -13133.670903 -21731.736249  13527.568295      0.039376                    
P 16  24497.100128   -380.095093  10476.972738   -361.256208                    
V 16  12470.556894   5943.336110 -27602.347184      0.083440                    
P 17 -12542.071825 -21001.296513  -9731.648856    716.780861                    
V 17   -994.074060 -13204.170516  28686.338966     -0.012178                    
P 18   1844.168049  17726.197796  19646.170993   -556.969517                    
V 18 -17692.530171  17609.585294 -14416.408661     -0.082969                    
P 19 -15238.534286 -13500.712042 -17435.717417    441.559409                    
V 19  -3423.887466 -21377.878022  19404.701278      0.052951                    
P 20 -26258.965487   1516.524176   3053.764033    387.261265                    
V 20  -3744.593085  -3295.024485 -31349.631135     -0.014190                    
P 21  17139.224065 -19361.530508   3382.707713    134.699476                    
V 21    600.702922   5195.403589  32041.297474     -0.013772                    
P 22 -23504.274134 -10953.150820   5401.344851     30.181438                    
V 22   6936.088550   -949.584746  30970.294943     -0.062056                    
P 23  12312.746755  14749.673802  18443.482794    157.549843                    
V 23 -23115.525357  -2833.596131  17535.761191      0.081003                    
P 24 -14927.303722  21687.035937   -924.940914   -432.758077                    
V 24  -3665.991117  -1786.747132  31391.953330     -0.061746                    
P 25   2573.549605  16022.605502 -21403.919707    488.775216                    
V 25 -26028.096184  -4355.796476  -6225.508296      0.011448                    
P 26  26494.775875   3737.971840   -621.293266    189.533898                    
V 26  -1024.833876   3320.101238 -30842.392020     -0.040411                    
P 27  15152.238407  -1825.487975  21494.061087     -4.589732                    
V 27   8904.358866  26445.871612  -3558.836188     -0.032998                    
P 28  14930.110385   5298.748136 -21336.873422   -133.221840                    
V 28 -16772.034466  21223.893963  -6476.366657     -0.128049                    
P 29   3631.059361  25929.955713  -4172.206483   -606.849983                    
V 29  -3680.254218  -4477.592550 -31504.443362      0.007627                    
P 30 -11343.752446 -11040.387463  21450.730219   -431.746567                    
V 30  18125.081501 -20071.050339  -1018.852160      0.049715                    
P 31  20165.257406  -3792.452862 -17289.922173   -227.789569                    
V 31 -13381.300022  16786.185175 -19129.732967     -0.001128                    
P 32  15280.507876  17914.353276 -12288.218647   -611.961069                    
V 32   3092.244171  15697.434655  26095.989389     -0.020061                    
EOF
